ASTROCAST-0403          
1 55111U 23001DG  26068.82333059  .00013959  00000+0  51317-3 0  9990
2 55111  97.5604 161.3228 0004771 338.0704  22.0330 15.28004949129377
STARLINK-30822          
1 58193U 23167U   26068.56274316  .00001074  00000+0  49710-4 0  9997
2 58193  43.0017 144.2908 0000495 333.5405  26.5421 15.26729916130969
